[{"OBJECT_NAME":"STARLINK-3052","OBJECT_ID":"2021-082AM","EPOCH":"2026-03-09T22:32:34.625760","MEAN_MOTION":14.98329484,"ECCENTRICITY":0.00024335,"INCLINATION":69.9986,"RA_OF_ASC_NODE":293.8413,"ARG_OF_PERICENTER":267.9124,"MEAN_ANOMALY":92.1757,"EPHEMERIS_TYPE":0,"CLASSIFICATION_TYPE":"U","NORAD_CAT_ID":49165,"ELEMENT_SET_NO":999,"REV_AT_EPOCH":24721,"BSTAR":-0.00014180098,"MEAN_MOTION_DOT":-1.784e-5,"MEAN_MOTION_DDOT":0},{"OBJECT_NAME":"NOAA 17 DEB","OBJECT_ID":"2002-032CQ","EPOCH":"2026-03-08T13:16:06.343680","MEAN_MOTION":14.94423569,"ECCENTRICITY":0.00133771,"INCLINATION":98.6934,"RA_OF_ASC_NODE":102.7142,"ARG_OF_PERICENTER":224.1091,"MEAN_ANOMALY":135.9061,"EPHEMERIS_TYPE":0,"CLASSIFICATION_TYPE":"U","NORAD_CAT_ID":48755,"ELEMENT_SET_NO":999,"REV_AT_EPOCH":26185,"BSTAR":0.0050463698,"MEAN_MOTION_DOT":0.00054808,"MEAN_MOTION_DDOT":0}]
